ONEWEB-0225             
1 48799U 21045AJ  26159.54016510 -.00000069  00000+0 -21771-3 0  9991
2 48799  87.9007 260.9204 0001374 101.5365 258.5920 13.15548736243282
ONEWEB-0215             
1 48800U 21045AK  26159.51003420  .00000123  00000+0  29154-3 0  9999
2 48800  87.9014 260.9082 0001282 110.0156 250.1112 13.15551431243151
ONEWEB-0216             
1 48801U 21045AL  26159.51956786  .00000068  00000+0  14675-3 0  9992
2 48801  87.9011 260.9215 0001980  98.6804 261.4551 13.15548877243166
ONEWEB-0239             
1 48802U 21045AM  26159.52431544  .00000053  00000+0  10661-3 0  9999
2 48802  87.8999 260.9277 0001359 120.8719 239.2545 13.15548408243203
ONEWEB-0249             
1 48967U 21060A   26159.23724962  .00000060  00000+0  12248-3 0  9996
2 48967  87.9101 230.5552 0002041 102.3786 257.7573 13.16595054238433
ONEWEB-0250             
1 48968U 21060B   26159.47780537  .00000046  00000+0  74972-4 0  9990
2 48968  87.9099 228.2921 0002557 120.9513 239.1874 13.25833581239068
ONEWEB-0252             
1 48970U 21060D   26159.49610905  .00000085  00000+0  18893-3 0  9998
2 48970  87.9103 230.4958 0001982  92.1762 267.9596 13.16593708238512
ONEWEB-0253             
1 48971U 21060E   26159.48502529  .00000066  00000+0  13988-3 0  9999
2 48971  87.9102 230.5037 0002016 102.6328 257.5028 13.16593594238445
ONEWEB-0254             
1 48972U 21060F   26159.49453106  .00000067  00000+0  14296-3 0  9991
2 48972  87.9102 230.4989 0001794 105.5149 254.6180 13.16594270238445
ONEWEB-0255             
1 48973U 21060G   26159.45653287  .00000003  00000+0 -24950-4 0  9990
2 48973  87.9100 230.5133 0001891 101.8234 258.3109 13.16594195238514
ONEWEB-0256             
1 48974U 21060H   26159.48264267  .00000086  00000+0  19146-3 0  9990
2 48974  87.9097 230.5128 0002130  96.5923 263.5451 13.16592983238483
ONEWEB-0257             
1 48975U 21060J   26159.43911091  .00000044  00000+0  81392-4 0  9997
2 48975  87.9101 230.5080 0001905  97.1515 262.9833 13.16594332238432
ONEWEB-0258             
1 48976U 21060K   26159.44069605  .00000056  00000+0  11312-3 0  9991
2 48976  87.9103 230.5195 0002045 100.6380 259.4981 13.16594339238441
ONEWEB-0259             
1 48977U 21060L   26159.43436751  .00000039  00000+0  69022-4 0  9994
2 48977  87.9102 230.5201 0001962 104.0817 256.0533 13.16594760238476
ONEWEB-0260             
1 48978U 21060M   26159.42564985  .00000074  00000+0  16035-3 0  9999
2 48978  87.9097 230.5239 0002117  88.1467 271.9907 13.16594038238454
ONEWEB-0261             
1 48979U 21060N   26159.47155892  .00000020  00000+0  18651-4 0  9996
2 48979  87.9097 230.5149 0001729  96.8807 263.2521 13.16595713238511
ONEWEB-0262             
1 48980U 21060P   26159.45178096  .00000051  00000+0  99009-4 0  9997
2 48980  87.9101 230.5045 0001991 106.9539 253.1810 13.16594358238478
ONEWEB-0263             
1 48981U 21060Q   26159.48344595  .00000004  00000+0 -23690-4 0  9992
2 48981  87.9102 230.5097 0001703 100.8517 259.2805 13.16594758238449
ONEWEB-0264             
1 48982U 21060R   26159.44466080  .00000055  00000+0  11013-3 0  9993
2 48982  87.9103 230.5203 0001923  93.8629 266.2721 13.16595066238447
ONEWEB-0266             
1 48984U 21060T   26159.23803736  .00000051  00000+0  99539-4 0  9991
2 48984  87.9103 230.5520 0002146 100.3405 259.7968 13.16593561238409
ONEWEB-0267             
1 48985U 21060U   26159.47711441  .00000101  00000+0  23021-3 0  9997
2 48985  87.9102 230.5010 0001850  96.9041 263.2300 13.16594157238446
ONEWEB-0268             
1 48986U 21060V   26159.44544188 -.00000031  00000+0 -11549-3 0  9993
2 48986  87.9103 230.5169 0002087  95.4098 264.7271 13.16595569238702
ONEWEB-0269             
1 48987U 21060W   26159.42644836  .00000110  00000+0  25536-3 0  9990
2 48987  87.9091 230.5240 0002218  95.8228 264.3156 13.16594739238474
ONEWEB-0270             
1 48988U 21060X   26159.21587517 -.00000039  00000+0 -13438-3 0  9990
2 48988  87.9102 230.5638 0001720 105.5499 254.5822 13.16594342238487
ONEWEB-0271             
1 48989U 21060Y   26159.43119935  .00000043  00000+0  79774-4 0  9999
2 48989  87.9101 230.5115 0001776  99.2744 260.8588 13.16594397238513
ONEWEB-0272             
1 48990U 21060Z   26159.45334670 -.00000236  00000+0 -64979-3 0  9994
2 48990  87.9100 230.5190 0001912  90.3287 269.8063 13.16594300238468
ONEWEB-0273             
1 48991U 21060AA  26159.24754051  .00000004  00000+0 -24296-4 0  9992
2 48991  87.9103 230.5590 0001901 100.9283 259.2062 13.16594384238417
ONEWEB-0274             
1 48992U 21060AB  26159.42485632  .00000052  00000+0  10199-3 0  9997
2 48992  87.9094 230.5270 0002046  89.8262 270.3103 13.16593742238478
ONEWEB-0275             
1 48993U 21060AC  26159.48978278  .00000053  00000+0  10378-3 0  9997
2 48993  87.9105 230.5024 0001978  96.5598 263.5758 13.16594075238413
ONEWEB-0276             
1 48994U 21060AD  26159.44702788 -.00000024  00000+0 -97340-4 0  9990
2 48994  87.9101 230.5102 0002041  93.9545 266.1819 13.16594294238423
ONEWEB-0277             
1 48995U 21060AE  26159.23170843  .00000032  00000+0  51250-4 0  9996
2 48995  87.9095 230.5626 0001887 100.5111 259.6233 13.16593268238380
