OBJECT_NAME,OBJECT_ID,EPOCH,MEAN_MOTION,ECCENTRICITY,INCLINATION,RA_OF_ASC_NODE,ARG_OF_PERICENTER,MEAN_ANOMALY,EPHEMERIS_TYPE,CLASSIFICATION_TYPE,NORAD_CAT_ID,ELEMENT_SET_NO,REV_AT_EPOCH,BSTAR,MEAN_MOTION_DOT,MEAN_MOTION_DDOT
ONEWEB-0225,2021-045AJ,2026-06-08T12:57:50.264640,13.15548736,.0001374,87.9007,260.9204,101.5365,258.5920,0,U,48799,999,24328,-.21771E-3,-.69E-6,0
ONEWEB-0215,2021-045AK,2026-06-08T12:14:26.954880,13.15551431,.0001282,87.9014,260.9082,110.0156,250.1112,0,U,48800,999,24315,.29154E-3,.123E-5,0
ONEWEB-0216,2021-045AL,2026-06-08T12:28:10.663104,13.15548877,.000198,87.9011,260.9215,98.6804,261.4551,0,U,48801,999,24316,.14675E-3,.68E-6,0
ONEWEB-0239,2021-045AM,2026-06-08T12:35:00.854016,13.15548408,.0001359,87.8999,260.9277,120.8719,239.2545,0,U,48802,999,24320,.10661E-3,.53E-6,0
ONEWEB-0249,2021-060A,2026-06-08T05:41:38.367168,13.16595054,.0002041,87.9101,230.5552,102.3786,257.7573,0,U,48967,999,23843,.12248E-3,.6E-6,0
ONEWEB-0250,2021-060B,2026-06-08T11:28:02.383968,13.25833581,.0002557,87.9099,228.2921,120.9513,239.1874,0,U,48968,999,23906,.74972E-4,.46E-6,0
ONEWEB-0252,2021-060D,2026-06-08T11:54:23.821920,13.16593708,.0001982,87.9103,230.4958,92.1762,267.9596,0,U,48970,999,23851,.18893E-3,.85E-6,0
ONEWEB-0253,2021-060E,2026-06-08T11:38:26.185056,13.16593594,.0002016,87.9102,230.5037,102.6328,257.5028,0,U,48971,999,23844,.13988E-3,.66E-6,0
ONEWEB-0254,2021-060F,2026-06-08T11:52:07.483584,13.16594270,.0001794,87.9102,230.4989,105.5149,254.6180,0,U,48972,999,23844,.14296E-3,.67E-6,0
ONEWEB-0255,2021-060G,2026-06-08T10:57:24.439968,13.16594195,.0001891,87.9100,230.5133,101.8234,258.3109,0,U,48973,999,23851,-.2495E-4,.3E-7,0
ONEWEB-0256,2021-060H,2026-06-08T11:35:00.326688,13.16592983,.000213,87.9097,230.5128,96.5923,263.5451,0,U,48974,999,23848,.19146E-3,.86E-6,0
ONEWEB-0257,2021-060J,2026-06-08T10:32:19.182624,13.16594332,.0001905,87.9101,230.5080,97.1515,262.9833,0,U,48975,999,23843,.81392E-4,.44E-6,0
ONEWEB-0258,2021-060K,2026-06-08T10:34:36.138720,13.16594339,.0002045,87.9103,230.5195,100.6380,259.4981,0,U,48976,999,23844,.11312E-3,.56E-6,0
ONEWEB-0259,2021-060L,2026-06-08T10:25:29.352864,13.16594760,.0001962,87.9102,230.5201,104.0817,256.0533,0,U,48977,999,23847,.69022E-4,.39E-6,0
ONEWEB-0260,2021-060M,2026-06-08T10:12:56.147040,13.16594038,.0002117,87.9097,230.5239,88.1467,271.9907,0,U,48978,999,23845,.16035E-3,.74E-6,0
ONEWEB-0261,2021-060N,2026-06-08T11:19:02.690688,13.16595713,.0001729,87.9097,230.5149,96.8807,263.2521,0,U,48979,999,23851,.18651E-4,.2E-6,0
ONEWEB-0262,2021-060P,2026-06-08T10:50:33.874944,13.16594358,.0001991,87.9101,230.5045,106.9539,253.1810,0,U,48980,999,23847,.99009E-4,.51E-6,0
ONEWEB-0263,2021-060Q,2026-06-08T11:36:09.730080,13.16594758,.0001703,87.9102,230.5097,100.8517,259.2805,0,U,48981,999,23844,-.2369E-4,.4E-7,0
ONEWEB-0264,2021-060R,2026-06-08T10:40:18.693120,13.16595066,.0001923,87.9103,230.5203,93.8629,266.2721,0,U,48982,999,23844,.11013E-3,.55E-6,0
ONEWEB-0266,2021-060T,2026-06-08T05:42:46.427904,13.16593561,.0002146,87.9103,230.5520,100.3405,259.7968,0,U,48984,999,23840,.99539E-4,.51E-6,0
ONEWEB-0267,2021-060U,2026-06-08T11:27:02.685024,13.16594157,.000185,87.9102,230.5010,96.9041,263.2300,0,U,48985,999,23844,.23021E-3,.101E-5,0
ONEWEB-0268,2021-060V,2026-06-08T10:41:26.178432,13.16595569,.0002087,87.9103,230.5169,95.4098,264.7271,0,U,48986,999,23870,-.11549E-3,-.31E-6,0
ONEWEB-0269,2021-060W,2026-06-08T10:14:05.138304,13.16594739,.0002218,87.9091,230.5240,95.8228,264.3156,0,U,48987,999,23847,.25536E-3,.11E-5,0
ONEWEB-0270,2021-060X,2026-06-08T05:10:51.614688,13.16594342,.000172,87.9102,230.5638,105.5499,254.5822,0,U,48988,999,23848,-.13438E-3,-.39E-6,0
ONEWEB-0271,2021-060Y,2026-06-08T10:20:55.623840,13.16594397,.0001776,87.9101,230.5115,99.2744,260.8588,0,U,48989,999,23851,.79774E-4,.43E-6,0
ONEWEB-0272,2021-060Z,2026-06-08T10:52:49.154880,13.16594300,.0001912,87.9100,230.5190,90.3287,269.8063,0,U,48990,999,23846,-.64979E-3,-.236E-5,0
ONEWEB-0273,2021-060AA,2026-06-08T05:56:27.500064,13.16594384,.0001901,87.9103,230.5590,100.9283,259.2062,0,U,48991,999,23841,-.24296E-4,.4E-7,0
ONEWEB-0274,2021-060AB,2026-06-08T10:11:47.586048,13.16593742,.0002046,87.9094,230.5270,89.8262,270.3103,0,U,48992,999,23847,.10199E-3,.52E-6,0
ONEWEB-0275,2021-060AC,2026-06-08T11:45:17.232192,13.16594075,.0001978,87.9105,230.5024,96.5598,263.5758,0,U,48993,999,23841,.10378E-3,.53E-6,0
ONEWEB-0276,2021-060AD,2026-06-08T10:43:43.208832,13.16594294,.0002041,87.9101,230.5102,93.9545,266.1819,0,U,48994,999,23842,-.9734E-4,-.24E-6,0
ONEWEB-0277,2021-060AE,2026-06-08T05:33:39.608352,13.16593268,.0001887,87.9095,230.5626,100.5111,259.6233,0,U,48995,999,23838,.5125E-4,.32E-6,0
